[{"OBJECT_NAME":"SAOCOM 1A","OBJECT_ID":"2018-076A","EPOCH":"2026-04-05T21:35:38.572800","MEAN_MOTION":14.82152388,"ECCENTRICITY":0.0001351,"INCLINATION":97.8904,"RA_OF_ASC_NODE":283.6887,"ARG_OF_PERICENTER":92.601,"MEAN_ANOMALY":267.5358,"EPHEMERIS_TYPE":0,"CLASSIFICATION_TYPE":"U","NORAD_CAT_ID":43641,"ELEMENT_SET_NO":999,"REV_AT_EPOCH":40539,"BSTAR":0.00016028,"MEAN_MOTION_DOT":1.224e-5,"MEAN_MOTION_DDOT":0},{"OBJECT_NAME":"H-2A R/B","OBJECT_ID":"2018-084L","EPOCH":"2026-04-05T20:36:21.179808","MEAN_MOTION":15.42591783,"ECCENTRICITY":0.002324,"INCLINATION":98.8679,"RA_OF_ASC_NODE":319.0742,"ARG_OF_PERICENTER":289.4308,"MEAN_ANOMALY":70.4423,"EPHEMERIS_TYPE":0,"CLASSIFICATION_TYPE":"U","NORAD_CAT_ID":43682,"ELEMENT_SET_NO":999,"REV_AT_EPOCH":40996,"BSTAR":0.0005067,"MEAN_MOTION_DOT":0.00022167,"MEAN_MOTION_DDOT":0},{"OBJECT_NAME":"SAOCOM 1B","OBJECT_ID":"2020-059A","EPOCH":"2026-04-05T19:06:12.780864","MEAN_MOTION":14.82152423,"ECCENTRICITY":0.0001405,"INCLINATION":97.8883,"RA_OF_ASC_NODE":282.6824,"ARG_OF_PERICENTER":83.8372,"MEAN_ANOMALY":276.3001,"EPHEMERIS_TYPE":0,"CLASSIFICATION_TYPE":"U","NORAD_CAT_ID":46265,"ELEMENT_SET_NO":999,"REV_AT_EPOCH":30276,"BSTAR":0.00010411,"MEAN_MOTION_DOT":7.77e-6,"MEAN_MOTION_DDOT":0},{"OBJECT_NAME":"CSS (TIANHE)","OBJECT_ID":"2021-035A","EPOCH":"2026-04-05T21:35:59.578368","MEAN_MOTION":15.61975413,"ECCENTRICITY":0.0003645,"INCLINATION":41.4683,"RA_OF_ASC_NODE":42.4237,"ARG_OF_PERICENTER":135.7211,"MEAN_ANOMALY":224.3921,"EPHEMERIS_TYPE":0,"CLASSIFICATION_TYPE":"U","NORAD_CAT_ID":48274,"ELEMENT_SET_NO":999,"REV_AT_EPOCH":28186,"BSTAR":0.00033283,"MEAN_MOTION_DOT":0.00029649,"MEAN_MOTION_DDOT":0},{"OBJECT_NAME":"COSMOS 2550","OBJECT_ID":"2021-056A","EPOCH":"2026-04-04T09:42:48.621024","MEAN_MOTION":15.338373,"ECCENTRICITY":0.00084309,"INCLINATION":67.1431,"RA_OF_ASC_NODE":323.0974,"ARG_OF_PERICENTER":269.6767,"MEAN_ANOMALY":90.3422,"EPHEMERIS_TYPE":0,"CLASSIFICATION_TYPE":"U","NORAD_CAT_ID":48865,"ELEMENT_SET_NO":999,"REV_AT_EPOCH":26740,"BSTAR":9.1325794e-5,"MEAN_MOTION_DOT":2.815e-5,"MEAN_MOTION_DDOT":0},{"OBJECT_NAME":"CZ-2C R/B","OBJECT_ID":"2022-058K","EPOCH":"2026-04-05T16:33:59.078304","MEAN_MOTION":15.56430439,"ECCENTRICITY":0.0041029,"INCLINATION":50.1871,"RA_OF_ASC_NODE":179.1837,"ARG_OF_PERICENTER":316.4982,"MEAN_ANOMALY":43.2755,"EPHEMERIS_TYPE":0,"CLASSIFICATION_TYPE":"U","NORAD_CAT_ID":52794,"ELEMENT_SET_NO":999,"REV_AT_EPOCH":21433,"BSTAR":0.00051887,"MEAN_MOTION_DOT":0.00038563,"MEAN_MOTION_DDOT":0},{"OBJECT_NAME":"CZ-2C R/B","OBJECT_ID":"2022-132E","EPOCH":"2026-04-05T13:53:59.296992","MEAN_MOTION":15.64550164,"ECCENTRICITY":0.0015602,"INCLINATION":97.2954,"RA_OF_ASC_NODE":99.7644,"ARG_OF_PERICENTER":0.0429,"MEAN_ANOMALY":0.0829,"EPHEMERIS_TYPE":0,"CLASSIFICATION_TYPE":"U","NORAD_CAT_ID":54039,"ELEMENT_SET_NO":999,"REV_AT_EPOCH":19457,"BSTAR":0.00055713,"MEAN_MOTION_DOT":0.00054135,"MEAN_MOTION_DDOT":0},{"OBJECT_NAME":"GSLV R/B","OBJECT_ID":"2022-138AN","EPOCH":"2026-04-05T14:17:01.680576","MEAN_MOTION":14.96956391,"ECCENTRICITY":0.0023549,"INCLINATION":87.3847,"RA_OF_ASC_NODE":157.3532,"ARG_OF_PERICENTER":58.298,"MEAN_ANOMALY":302.0543,"EPHEMERIS_TYPE":0,"CLASSIFICATION_TYPE":"U","NORAD_CAT_ID":54149,"ELEMENT_SET_NO":999,"REV_AT_EPOCH":18795,"BSTAR":0.00028631,"MEAN_MOTION_DOT":3.336e-5,"MEAN_MOTION_DDOT":0},{"OBJECT_NAME":"XRISM","OBJECT_ID":"2023-137A","EPOCH":"2026-04-05T07:36:15.890976","MEAN_MOTION":15.11831629,"ECCENTRICITY":0.0007823,"INCLINATION":31.0012,"RA_OF_ASC_NODE":111.3941,"ARG_OF_PERICENTER":306.0924,"MEAN_ANOMALY":53.899,"EPHEMERIS_TYPE":0,"CLASSIFICATION_TYPE":"U","NORAD_CAT_ID":57800,"ELEMENT_SET_NO":999,"REV_AT_EPOCH":14182,"BSTAR":0.00036174,"MEAN_MOTION_DOT":6.438e-5,"MEAN_MOTION_DDOT":0},{"OBJECT_NAME":"ACS3","OBJECT_ID":"2024-077B","EPOCH":"2026-04-05T20:19:28.024896","MEAN_MOTION":13.91046359,"ECCENTRICITY":0.0073223,"INCLINATION":97.1941,"RA_OF_ASC_NODE":30.8564,"ARG_OF_PERICENTER":15.8603,"MEAN_ANOMALY":344.4831,"EPHEMERIS_TYPE":0,"CLASSIFICATION_TYPE":"U","NORAD_CAT_ID":59588,"ELEMENT_SET_NO":999,"REV_AT_EPOCH":9797,"BSTAR":0.035966,"MEAN_MOTION_DOT":0.00046388,"MEAN_MOTION_DDOT":0},{"OBJECT_NAME":"HTV-X1","OBJECT_ID":"2025-241A","EPOCH":"2026-04-05T20:14:35.045952","MEAN_MOTION":15.32552432,"ECCENTRICITY":0.0007382,"INCLINATION":51.6366,"RA_OF_ASC_NODE":302.1676,"ARG_OF_PERICENTER":277.645,"MEAN_ANOMALY":82.3693,"EPHEMERIS_TYPE":0,"CLASSIFICATION_TYPE":"U","NORAD_CAT_ID":66174,"ELEMENT_SET_NO":999,"REV_AT_EPOCH":2510,"BSTAR":0.00020769,"MEAN_MOTION_DOT":6.264e-5,"MEAN_MOTION_DDOT":0},{"OBJECT_NAME":"SZ-21 MODULE","OBJECT_ID":"2025-246C","EPOCH":"2026-04-05T13:00:16.474176","MEAN_MOTION":15.70809155,"ECCENTRICITY":0.0003531,"INCLINATION":41.4755,"RA_OF_ASC_NODE":37.8006,"ARG_OF_PERICENTER":233.2393,"MEAN_ANOMALY":126.8126,"EPHEMERIS_TYPE":0,"CLASSIFICATION_TYPE":"U","NORAD_CAT_ID":66515,"ELEMENT_SET_NO":999,"REV_AT_EPOCH":2229,"BSTAR":0.00035049,"MEAN_MOTION_DOT":0.0004484,"MEAN_MOTION_DDOT":0}]
