SAOCOM 1A               
1 43641U 18076A   26095.89975200  .00001224  00000+0  16028-3 0  9990
2 43641  97.8904 283.6887 0001351  92.6010 267.5358 14.82152388405396
H-2A R/B                
1 43682U 18084L   26095.85857847  .00022167  00000+0  50670-3 0  9996
2 43682  98.8679 319.0742 0023240 289.4308  70.4423 15.42591783409966
SAOCOM 1B               
1 46265U 20059A   26095.79598126  .00000777  00000+0  10411-3 0  9998
2 46265  97.8883 282.6824 0001405  83.8372 276.3001 14.82152423302760
CSS (TIANHE)            
1 48274U 21035A   26095.89999512  .00029649  00000+0  33283-3 0  9991
2 48274  41.4683  42.4237 0003645 135.7211 224.3921 15.61975413281863
COSMOS 2550             
1 48865U 21056A   26094.40472941  .00002815  00000+0  91326-4 0  9997
2 48865  67.1431 323.0974 0008430 269.6767  90.3422 15.33837300267403
CZ-2C R/B               
1 52794U 22058K   26095.69026711  .00038563  00000+0  51887-3 0  9994
2 52794  50.1871 179.1837 0041029 316.4982  43.2755 15.56430439214335
CZ-2C R/B               
1 54039U 22132E   26095.57915853  .00054135  00000+0  55713-3 0  9997
2 54039  97.2954  99.7644 0015602   0.0429   0.0829 15.64550164194579
GSLV R/B                
1 54149U 22138AN  26095.59515834  .00003336  00000+0  28631-3 0  9998
2 54149  87.3847 157.3532 0023549  58.2980 302.0543 14.96956391187953
XRISM                   
1 57800U 23137A   26095.31685059  .00006438  00000+0  36174-3 0  9999
2 57800  31.0012 111.3941 0007823 306.0924  53.8990 15.11831629141820
ACS3                    
1 59588U 24077B   26095.84685214  .00046388  00000+0  35966-1 0  9993
2 59588  97.1941  30.8564 0073223  15.8603 344.4831 13.91046359 97974
HTV-X1                  
1 66174U 25241A   26095.84346118  .00006264  00000+0  20769-3 0  9999
2 66174  51.6366 302.1676 0007382 277.6450  82.3693 15.32552432 25100
SZ-21 MODULE            
1 66515U 25246C   26095.54185734  .00044840  00000+0  35049-3 0  9994
2 66515  41.4755  37.8006 0003531 233.2393 126.8126 15.70809155 22294
